{"type": "FeatureCollection", "features": [ {"type": "Feature", "properties": {"norad_id": 35462, "name": "COSMOS 2251 DEB", "group": "cosmos-2251-debris", "lat": -11.819267706579168, "lon": -92.26900283229007, "alt_km": 751.0540520021814, "timestamp": "2025-12-11T08:58:27.521597+00:00", "meta": {"OBJECT_NAME": "COSMOS 2251 DEB", "OBJECT_ID": "1993-036ALG", "EPOCH": "2025-12-11T03:59:29.501088", "MEAN_MOTION": 14.29274316, "ECCENTRICITY": 0.0086872, "INCLINATION": 74.0365, "RA_OF_ASC_NODE": 271.5419, "ARG_OF_PERICENTER": 307.0131, "MEAN_ANOMALY": 52.3091, "EPHEMERIS_TYPE": 0, "CLASSIFICATION_TYPE": "U", "NORAD_CAT_ID": 35462, "ELEMENT_SET_NO": 999, "REV_AT_EPOCH": 66358, "BSTAR": 0.0025437, "MEAN_MOTION_DOT": 6.718e-05, "MEAN_MOTION_DDOT": 0}, "tle": {"line1": "1 35462U 93036ALG 25345.16631367  .00006718  00000+0  25437-2 0  9997", "line2": "2 35462  74.0365 271.5419 0086872 307.0131  52.3091 14.29274316663589"}}, "geometry": {"type": "Point", "coordinates": [-92.26900283229007, -11.819267706579168]}}, {"type": "Feature", "properties": {"norad_id": 35465, "name": "COSMOS 2251 DEB", "group": "cosmos-2251-debris", "lat": -26.89118680868493, "lon": -168.79308630479645, "alt_km": 709.4257239059389, "timestamp": "2025-12-11T08:58:27.521608+00:00", "meta": {"OBJECT_NAME": "COSMOS 2251 DEB", "OBJECT_ID": "1993-036ALK", "EPOCH": "2025-12-09T07:13:54.181920", "MEAN_MOTION": 14.44306043, "ECCENTRICITY": 0.0063804, "INCLINATION": 73.9983, "RA_OF_ASC_NODE": 203.4389, "ARG_OF_PERICENTER": 4.3071, "MEAN_ANOMALY": 355.8621, "EPHEMERIS_TYPE": 0, "CLASSIFICATION_TYPE": "U", "NORAD_CAT_ID": 35465, "ELEMENT_SET_NO": 999, "REV_AT_EPOCH": 87192, "BSTAR": 0.00063465, "MEAN_MOTION_DOT": 2.21e-05, "MEAN_MOTION_DDOT": 0}, "tle": {"line1": "1 35465U 93036ALK 25343.30132155  .00002210  00000+0  63465-3 0  9992", "line2": "2 35465  73.9983 203.4389 0063804   4.3071 355.8621 14.44306043871925"}}, "geometry": {"type": "Point", "coordinates": [-168.79308630479645, -26.89118680868493]}}, {"type": "Feature", "properties": {"norad_id": 35469, "name": "COSMOS 2251 DEB", "group": "cosmos-2251-debris", "lat": 37.181603440251585, "lon": -166.11770412724184, "alt_km": 681.8397667088157, "timestamp": "2025-12-11T08:58:27.521618+00:00", "meta": {"OBJECT_NAME": "COSMOS 2251 DEB", "OBJECT_ID": "1993-036ALP", "EPOCH": "2025-12-10T09:08:19.185504", "MEAN_MOTION": 14.49816344, "ECCENTRICITY": 0.00770564, "INCLINATION": 74.0175, "RA_OF_ASC_NODE": 28.3045, "ARG_OF_PERICENTER": 184.2675, "MEAN_ANOMALY": 175.7838, "EPHEMERIS_TYPE": 0, "CLASSIFICATION_TYPE": "U", "NORAD_CAT_ID": 35469, "ELEMENT_SET_NO": 999, "REV_AT_EPOCH": 88077, "BSTAR": 0.00017261696, "MEAN_MOTION_DOT": 6.62e-06, "MEAN_MOTION_DDOT": 0}, "tle": {"line1": "1 35469U 93036ALP 25344.38077761  .00000662  00000+0  17262-3 0  9999", "line2": "2 35469  74.0175  28.3045 0077056 184.2675 175.7838 14.49816344880776"}}, "geometry": {"type": "Point", "coordinates": [-166.11770412724184, 37.181603440251585]}}, {"type": "Feature", "properties": {"norad_id": 35475, "name": "COSMOS 2251 DEB", "group": "cosmos-2251-debris", "lat": -69.5767000157686, "lon": 38.58095416315195, "alt_km": 654.9818859647194, "timestamp": "2025-12-11T08:58:27.521629+00:00", "meta": {"OBJECT_NAME": "COSMOS 2251 DEB", "OBJECT_ID": "1993-036ALV", "EPOCH": "2025-12-11T04:32:24.396864", "MEAN_MOTION": 14.69672963, "ECCENTRICITY": 0.0020715, "INCLINATION": 74.0218, "RA_OF_ASC_NODE": 168.6316, "ARG_OF_PERICENTER": 241.6162, "MEAN_ANOMALY": 118.292, "EPHEMERIS_TYPE": 0, "CLASSIFICATION_TYPE": "U", "NORAD_CAT_ID": 35475, "ELEMENT_SET_NO": 999, "REV_AT_EPOCH": 65594, "BSTAR": 0.0028598, "MEAN_MOTION_DOT": 0.00017092, "MEAN_MOTION_DDOT": 0}, "tle": {"line1": "1 35475U 93036ALV 25345.18917126  .00017092  00000+0  28598-2 0  9991", "line2": "2 35475  74.0218 168.6316 0020715 241.6162 118.2920 14.69672963655941"}}, "geometry": {"type": "Point", "coordinates": [38.58095416315195, -69.5767000157686]}}, {"type": "Feature", "properties": {"norad_id": 35476, "name": "COSMOS 2251 DEB", "group": "cosmos-2251-debris", "lat": 67.43995301858538, "lon": 107.36229660411841, "alt_km": 625.3522591990686, "timestamp": "2025-12-11T08:58:27.521639+00:00", "meta": {"OBJECT_NAME": "COSMOS 2251 DEB", "OBJECT_ID": "1993-036ALW", "EPOCH": "2025-12-10T05:06:43.879968", "MEAN_MOTION": 14.75586527, "ECCENTRICITY": 0.0017513, "INCLINATION": 73.9777, "RA_OF_ASC_NODE": 65.8758, "ARG_OF_PERICENTER": 48.7738, "MEAN_ANOMALY": 340.6076, "EPHEMERIS_TYPE": 0, "CLASSIFICATION_TYPE": "U", "NORAD_CAT_ID": 35476, "ELEMENT_SET_NO": 999, "REV_AT_EPOCH": 87850, "BSTAR": 0.00253, "MEAN_MOTION_DOT": 0.0001731, "MEAN_MOTION_DDOT": 0}, "tle": {"line1": "1 35476U 93036ALW 25344.21300787  .00017310  00000+0  25300-2 0  9995", "line2": "2 35476  73.9777  65.8758 0017513  48.7738 340.6076 14.75586527878504"}}, "geometry": {"type": "Point", "coordinates": [107.36229660411841, 67.43995301858538]}}, {"type": "Feature", "properties": {"norad_id": 35580, "name": "COSMOS 2251 DEB", "group": "cosmos-2251-debris", "lat": -73.71309927502895, "lon": 82.3097819941702, "alt_km": 919.4359509265414, "timestamp": "2025-12-11T08:58:27.521650+00:00", "meta": {"OBJECT_NAME": "COSMOS 2251 DEB", "OBJECT_ID": "1993-036ALX", "EPOCH": "2025-12-10T21:17:20.461632", "MEAN_MOTION": 13.83850084, "ECCENTRICITY": 0.0281508, "INCLINATION": 73.9016, "RA_OF_ASC_NODE": 181.8733, "ARG_OF_PERICENTER": 187.4326, "MEAN_ANOMALY": 172.2587, "EPHEMERIS_TYPE": 0, "CLASSIFICATION_TYPE": "U", "NORAD_CAT_ID": 35580, "ELEMENT_SET_NO": 999, "REV_AT_EPOCH": 62231, "BSTAR": 0.0026077, "MEAN_MOTION_DOT": 3.904e-05, "MEAN_MOTION_DDOT": 0}, "tle": {"line1": "1 35580U 93036ALX 25344.88704238  .00003904  00000+0  26077-2 0  9999", "line2": "2 35580  73.9016 181.8733 0281508 187.4326 172.2587 13.83850084622311"}}, "geometry": {"type": "Point", "coordinates": [82.3097819941702, -73.71309927502895]}}, {"type": "Feature", "properties": {"norad_id": 35583, "name": "COSMOS 2251 DEB", "group": "cosmos-2251-debris", "lat": 72.21009042364504, "lon": -29.80922379440812, "alt_km": 1264.1310504863031, "timestamp": "2025-12-11T08:58:27.521660+00:00", "meta": {"OBJECT_NAME": "COSMOS 2251 DEB", "OBJECT_ID": "1993-036AMA", "EPOCH": "2025-12-10T23:36:14.703264", "MEAN_MOTION": 13.55329862, "ECCENTRICITY": 0.03856, "INCLINATION": 73.9167, "RA_OF_ASC_NODE": 214.8624, "ARG_OF_PERICENTER": 239.5355, "MEAN_ANOMALY": 116.7145, "EPHEMERIS_TYPE": 0, "CLASSIFICATION_TYPE": "U", "NORAD_CAT_ID": 35583, "ELEMENT_SET_NO": 999, "REV_AT_EPOCH": 82388, "BSTAR": 0.00077883, "MEAN_MOTION_DOT": 8.45e-06, "MEAN_MOTION_DDOT": 0}, "tle": {"line1": "1 35583U 93036AMA 25344.98350351  .00000845  00000+0  77883-3 0  9999", "line2": "2 35583  73.9167 214.8624 0385600 239.5355 116.7145 13.55329862823888"}}, "geometry": {"type": "Point", "coordinates": [-29.80922379440812, 72.21009042364504]}}, {"type": "Feature", "properties": {"norad_id": 35585, "name": "COSMOS 2251 DEB", "group": "cosmos-2251-debris", "lat": -37.982899073751135, "lon": -22.276356142437656, "alt_km": 857.6637771145661, "timestamp": "2025-12-11T08:58:27.521671+00:00", "meta": {"OBJECT_NAME": "COSMOS 2251 DEB", "OBJECT_ID": "1993-036AMC", "EPOCH": "2025-12-10T11:15:36.972288", "MEAN_MOTION": 13.75237799, "ECCENTRICITY": 0.03105199, "INCLINATION": 73.9731, "RA_OF_ASC_NODE": 352.2025, "ARG_OF_PERICENTER": 264.9019, "MEAN_ANOMALY": 254.8176, "EPHEMERIS_TYPE": 0, "CLASSIFICATION_TYPE": "U", "NORAD_CAT_ID": 35585, "ELEMENT_SET_NO": 999, "REV_AT_EPOCH": 64032, "BSTAR": 0.0016826252, "MEAN_MOTION_DOT": 2.267e-05, "MEAN_MOTION_DDOT": 0}, "tle": {"line1": "1 35585U 93036AMC 25344.46917792  .00002267  00000+0  16826-2 0  9991", "line2": "2 35585  73.9731 352.2025 0310519 264.9019 254.8176 13.75237799640328"}}, "geometry": {"type": "Point", "coordinates": [-22.276356142437656, -37.982899073751135]}}, {"type": "Feature", "properties": {"norad_id": 35586, "name": "COSMOS 2251 DEB", "group": "cosmos-2251-debris", "lat": -73.06112819528231, "lon": -165.14596177627678, "alt_km": 1028.193244837409, "timestamp": "2025-12-11T08:58:27.521681+00:00", "meta": {"OBJECT_NAME": "COSMOS 2251 DEB", "OBJECT_ID": "1993-036AMD", "EPOCH": "2025-12-09T15:43:44.050080", "MEAN_MOTION": 13.52082947, "ECCENTRICITY": 0.0404687, "INCLINATION": 74.02, "RA_OF_ASC_NODE": 307.4172, "ARG_OF_PERICENTER": 183.4058, "MEAN_ANOMALY": 354.3417, "EPHEMERIS_TYPE": 0, "CLASSIFICATION_TYPE": "U", "NORAD_CAT_ID": 35586, "ELEMENT_SET_NO": 999, "REV_AT_EPOCH": 60340, "BSTAR": 0.00055296, "MEAN_MOTION_DOT": 5.88e-06, "MEAN_MOTION_DDOT": 0}, "tle": {"line1": "1 35586U 93036AMD 25343.65537095  .00000588  00000+0  55296-3 0  9995", "line2": "2 35586  74.0200 307.4172 0404687 183.4058 354.3417 13.52082947603405"}}, "geometry": {"type": "Point", "coordinates": [-165.14596177627678, -73.06112819528231]}}, {"type": "Feature", "properties": {"norad_id": 35587, "name": "COSMOS 2251 DEB", "group": "cosmos-2251-debris", "lat": -71.99682270734645, "lon": -56.95105094788294, "alt_km": 592.6656154967841, "timestamp": "2025-12-11T08:58:27.521692+00:00", "meta": {"OBJECT_NAME": "COSMOS 2251 DEB", "OBJECT_ID": "1993-036AME", "EPOCH": "2025-12-09T21:31:13.107072", "MEAN_MOTION": 14.71502807, "ECCENTRICITY": 0.01026846, "INCLINATION": 74.0052, "RA_OF_ASC_NODE": 63.9631, "ARG_OF_PERICENTER": 252.2421, "MEAN_ANOMALY": 106.7524, "EPHEMERIS_TYPE": 0, "CLASSIFICATION_TYPE": "U", "NORAD_CAT_ID": 35587, "ELEMENT_SET_NO": 999, "REV_AT_EPOCH": 66304, "BSTAR": 0.00042332871, "MEAN_MOTION_DOT": 2.817e-05, "MEAN_MOTION_DDOT": 0}, "tle": {"line1": "1 35587U 93036AME 25343.89667948  .00002817  00000+0  42333-3 0  9998", "line2": "2 35587  74.0052  63.9631 0102684 252.2421 106.7524 14.71502807663044"}}, "geometry": {"type": "Point", "coordinates": [-56.95105094788294, -71.99682270734645]}}]}